[{"OBJECT_ID":"2003-013D","OBJECT_NAME":"ARIANE 5 DEB (SYLDA)","NORAD_CAT_ID":"27717","OBJECT_TYPE":"DEBRIS","PERIOD":"647.393","INCLINATION":"1.9159","APOGEE":"35975.274","PERIGEE":"847.973","ECCENTRICITY":"0.7085043","MEAN_MOTION":"2.22430485","TLE_LINE1":"1 27717U 03013D   16238.81396130 -.00000134 +00000-0 -67986-2 0  9990","TLE_LINE2":"2 27717 001.9159 050.7015 7085043 022.7912 149.2820 02.22430485108767","LAUNCH_DATE":"2003-04-09","LAUNCH_SITE":"FRENCH GUIANA","OWNER":"FRANCE","ORBIT_TYPE":"Highly Elliptical Orbit","OPERATIONAL_STATUS":"N/A, space debris","satInfo":{"lng":49.04473220819283,"lat":-5.486792958217516,"elevation":-13.843067520001828,"azimuth":265.95526779180716,"range":43514.88204392657,"height":36067.121180629954,"velocity":1.6481831393951687},"x":259.6869109094461,"y":-228.94587284909898,"dx":1.0803339579176825,"dy":1.2447434275208802,"maxAlt":343.59077598890207,"minAlt":6.238255109049321},{"OBJECT_ID":"2003-014A","OBJECT_NAME":"ASIASAT 4","NORAD_CAT_ID":"27718","OBJECT_TYPE":"PAYLOAD","PERIOD":"1436.150","INCLINATION":"0.0092","APOGEE":"35793.544","PERIGEE":"35781.763","ECCENTRICITY":"0.0001397","MEAN_MOTION":"1.00268014","TLE_LINE1":"1 27718U 03014A   16238.80674259 -.00000387 +00000-0 +00000-0 0  9993","TLE_LINE2":"2 27718 000.0092 162.4200 0001397 284.8762 299.6986 01.00268014049004","LAUNCH_DATE":"2003-04-12","LAUNCH_SITE":"AIR FORCE EASTERN TEST RANGE","OWNER":"ASIASAT CORP","ORBIT_TYPE":"Geosynchronous","OPERATIONAL_STATUS":"Operational","satInfo":{"lng":78.6951152632002,"lat":0.08382864226527151,"elevation":-8.485660793588876,"azimuth":236.3048847367998,"range":42663.10438559855,"height":35817.97199520635,"velocity":3.073379857899582},"x":335.40606814886974,"y":-69.33682963568901,"dx":0.602473871609562,"dy":3.013749987137394,"maxAlt":341.8454932067295,"minAlt":341.7323518626653},{"OBJECT_ID":"2003-020A","OBJECT_NAME":"HELLAS-SAT 2","NORAD_CAT_ID":"27811","OBJECT_TYPE":"PAYLOAD","PERIOD":"1436.056","INCLINATION":"0.0364","APOGEE":"35801.909","PERIGEE":"35769.688","ECCENTRICITY":"0.0003821","MEAN_MOTION":"1.00274632","TLE_LINE1":"1 27811U 03020A   16239.18626075  .00000124  00000-0  00000+0 0  9996","TLE_LINE2":"2 27811   0.0364 297.7863 0003821 224.0426 279.0937  1.00274632 48420","LAUNCH_DATE":"2003-05-13","LAUNCH_SITE":"AIR FORCE EASTERN TEST RANGE","OWNER":"GREECE","ORBIT_TYPE":"Geosynchronous","OPERATIONAL_STATUS":"Operational","satInfo":{"lng":98.86940802191337,"lat":1.8014743154030395,"elevation":-6.810514463024651,"azimuth":216.13059197808664,"range":42441.74721905344,"height":35784.94912749348,"velocity":3.074235720156118},"x":337.6534772348554,"y":51.082340892221616,"dx":-0.4739944621881238,"dy":3.0374750225966958,"maxAlt":341.92582826683446,"minAlt":341.616387026949},{"OBJECT_ID":"2003-024A","OBJECT_NAME":"AMC-9 (GE-12)","NORAD_CAT_ID":"27820","OBJECT_TYPE":"PAYLOAD","PERIOD":"1436.104","INCLINATION":"0.0636","APOGEE":"35798.954","PERIGEE":"35774.523","ECCENTRICITY":"0.0002897","MEAN_MOTION":"1.00271278","TLE_LINE1":"1 27820U 03024A   16239.27851650 -.00000244  00000-0  00000+0 0  9993","TLE_LINE2":"2 27820   0.0636 285.0864 0002897 234.6528 192.4665  1.00271278 48413","LAUNCH_DATE":"2003-06-06","LAUNCH_SITE":"TYURATAM MISSILE AND SPACE COMPLEX","OWNER":"SOCIÉTÉ EUROPÉENNE DES SATELLITES","ORBIT_TYPE":"Geosynchronous","OPERATIONAL_STATUS":"Operational","satInfo":{"lng":-100.0843575823093,"lat":-1.7840290303018909,"elevation":-10.312303054189607,"azimuth":55.084357582309266,"range":42837.63710980744,"height":35787.945715302165,"velocity":3.0749767073426617},"x":-340.2928270449622,"y":58.27523050300323,"dx":-0.5384220829483688,"dy":-3.0274714550749207,"maxAlt":341.8974492946156,"minAlt":341.66282097980104},{"OBJECT_ID":"2003-028B","OBJECT_NAME":"OPTUS C1","NORAD_CAT_ID":"27831","OBJECT_TYPE":"PAYLOAD","PERIOD":"1436.098","INCLINATION":"0.0354","APOGEE":"35804.609","PERIGEE":"35768.634","ECCENTRICITY":"0.0004266","MEAN_MOTION":"1.00271694","TLE_LINE1":"1 27831U 03028B   16239.49261594 -.00000176  00000-0  00000+0 0  9999","TLE_LINE2":"2 27831   0.0354 220.8112 0004266 303.3875 144.3075  1.00271694 48408","LAUNCH_DATE":"2003-06-11","LAUNCH_SITE":"FRENCH GUIANA","OWNER":"AUSTRALIA","ORBIT_TYPE":"Geosynchronous","OPERATIONAL_STATUS":"Operational","satInfo":{"lng":-126.90238610009578,"lat":-1.376015987229555,"elevation":-9.910503934592164,"azimuth":81.90238610009575,"range":42817.13472814714,"height":35812.22560650726,"velocity":3.073969906584103},"x":-276.93265091891834,"y":204.60875188697307,"dx":-1.8457760751132155,"dy":-2.4581297091740972,"maxAlt":341.951758292212,"minAlt":341.6062647133386},{"OBJECT_ID":"2003-033A","OBJECT_NAME":"ECHOSTAR 12 (RAINBOW 1)","NORAD_CAT_ID":"27852","OBJECT_TYPE":"PAYLOAD","PERIOD":"1436.083","INCLINATION":"0.0616","APOGEE":"35793.048","PERIGEE":"35779.631","ECCENTRICITY":"0.0001591","MEAN_MOTION":"1.00272701","TLE_LINE1":"1 27852U 03033A   16239.38890537 -.00000311  00000-0  00000+0 0  9992","TLE_LINE2":"2 27852   0.0616 286.4114 0001591 201.1604 286.3075  1.00272701 48075","LAUNCH_DATE":"2003-07-17","LAUNCH_SITE":"AIR FORCE EASTERN TEST RANGE","OWNER":"UNITED STATES OF AMERICA","ORBIT_TYPE":"Geosynchronous","OPERATIONAL_STATUS":"Operational","satInfo":{"lng":-71.19934148324151,"lat":-2.180566477182788,"elevation":-10.696724780252772,"azimuth":26.199341483241508,"range":42885.86314883368,"height":35793.022139468885,"velocity":3.07466716956773},"x":-327.3109778572052,"y":-112.68669079690687,"dx":0.9908932056557418,"dy":-2.9106200127469273,"maxAlt":341.8407297650305,"minAlt":341.7118767463302},{"OBJECT_ID":"2003-034A","OBJECT_NAME":"GALAXY 23 (TELSTAR 13)","NORAD_CAT_ID":"27854","OBJECT_TYPE":"PAYLOAD","PERIOD":"1436.089","INCLINATION":"0.0305","APOGEE":"35801.237","PERIGEE":"35771.662","ECCENTRICITY":"0.0003507","MEAN_MOTION":"1.00272309","TLE_LINE1":"1 27854U 03034A   16239.28876440 -.00000015  00000-0  00000+0 0  9992","TLE_LINE2":"2 27854   0.0305 129.2868 0003507  61.7739 126.8436  1.00272309 52629","LAUNCH_DATE":"2003-08-08","LAUNCH_SITE":"SEA LAUNCH","OWNER":"UNITED STATES OF AMERICA","ORBIT_TYPE":"Geosynchronous","OPERATIONAL_STATUS":"Operational","satInfo":{"lng":-106.69918552461556,"lat":0.7379372022296524,"elevation":-7.854865673250179,"azimuth":61.69918552461554,"range":42547.99794105549,"height":35774.14375414808,"velocity":3.075273477859018},"x":-330.9807525717177,"y":96.81679363746073,"dx":-0.8836703131496704,"dy":-2.945578676810562,"maxAlt":341.91937457162936,"minAlt":341.6353447566139},{"OBJECT_ID":"2003-034B","OBJECT_NAME":"BLOCK DM-SL R/B","NORAD_CAT_ID":"27855","OBJECT_TYPE":"ROCKET BODY","PERIOD":"641.020","INCLINATION":"0.2442","APOGEE":"35829.963","PERIGEE":"667.400","ECCENTRICITY":"0.713908","MEAN_MOTION":"2.24641683","TLE_LINE1":"1 27855U 03034B   16239.16795332 -.00000191  00000-0  55919-3 0  9998","TLE_LINE2":"2 27855   0.2442 223.9987 7139080 133.7561 352.8668  2.24641683107131","LAUNCH_DATE":"2003-08-08","LAUNCH_SITE":"SEA LAUNCH","OWNER":"SEA LAUNCH DEMO","ORBIT_TYPE":"Highly Elliptical Orbit","OPERATIONAL_STATUS":"N/A, derelict rocket body","satInfo":{"lng":11.387096727172885,"lat":0.051117078331078626,"elevation":-9.031074151358522,"azimuth":303.6129032728271,"range":40273.117283364256,"height":33395.74450482407,"velocity":1.9634268185125698},"x":61.41704538922864,"y":-316.31536086407334,"dx":1.9247780635471068,"dy":0.38765226394571917,"maxAlt":342.19525083422053,"minAlt":4.504083822936629},{"OBJECT_ID":"2003-043A","OBJECT_NAME":"EUTE 33A (EB 3)","NORAD_CAT_ID":"27948","OBJECT_TYPE":"PAYLOAD","PERIOD":"1436.136","INCLINATION":"1.7757","APOGEE":"35793.816","PERIGEE":"35780.914","ECCENTRICITY":"0.000153","MEAN_MOTION":"1.00269044","TLE_LINE1":"1 27948U 03043A   16239.00671532  .00000125  00000-0  00000+0 0  9992","TLE_LINE2":"2 27948   1.7757  79.4504 0001530 208.8982  79.5962  1.00269044 47403","LAUNCH_DATE":"2003-09-27","LAUNCH_SITE":"FRENCH GUIANA","OWNER":"EUROPEAN TELECOMMUNICATIONS SATELLITE ORGANIZATION (EUTELSAT)","ORBIT_TYPE":"Geosynchronous","OPERATIONAL_STATUS":"Operational","satInfo":{"lng":78.99815517846243,"lat":-3.9619875650833785,"elevation":-12.430994649306383,"azimuth":236.00184482153753,"range":43042.00999985239,"height":35755.387739162725,"velocity":3.0760408197706086},"x":335.16800143263174,"y":-67.43713624644703,"dx":0.5870334815624982,"dy":3.019506386219385,"maxAlt":341.84810541669344,"minAlt":341.72419831024104},{"OBJECT_ID":"2003-043E","OBJECT_NAME":"INSAT 3E","NORAD_CAT_ID":"27951","OBJECT_TYPE":"PAYLOAD","PERIOD":"1428.505","INCLINATION":"1.9075","APOGEE":"35718.538","PERIGEE":"35557.196","ECCENTRICITY":"0.00192","MEAN_MOTION":"1.00804673","TLE_LINE1":"1 27951U 03043E   16239.38546310 -.00000306  00000-0  00000+0 0  9994","TLE_LINE2":"2 27951   1.9075  79.9519 0019200 158.2724 161.6684  1.00804673 47348","LAUNCH_DATE":"2003-09-27","LAUNCH_SITE":"FRENCH GUIANA","OWNER":"INDIA","ORBIT_TYPE":"Geosynchronous","OPERATIONAL_STATUS":"Nonoperational","satInfo":{"lng":-42.07809444790752,"lat":2.8292737824309957,"elevation":-5.8398221050244326,"azimuth":357.0780944479075,"range":42138.780204843555,"height":35593.06160430674,"velocity":3.0834700795646564},"x":-230.9773992979196,"y":-255.61933403953736,"dx":2.2886504938226366,"dy":-2.066365565115686,"maxAlt":341.1251571017405,"minAlt":339.5756748223079}]